STARLINK-2015           
1 47638U 21012U   24009.03505771  .00001935  00000+0  14876-3 0  9993
2 47638  53.0545 286.0089 0001365  97.3043 262.8102 15.06391348161634
STARLINK-2016           
1 47639U 21012V   24009.14792183 -.00001792  00000+0 -10150-3 0  9995
2 47639  53.0530   0.4912 0001528  89.3223 270.7941 15.06387873160595
STARLINK-2018           
1 47640U 21012W   24008.94335658  .00001708  00000+0  13355-3 0  9999
2 47640  53.0556  21.4177 0001531 105.0392 255.0767 15.06394015160282
STARLINK-2019           
1 47641U 21012X   24009.08664216  .00011879  00000+0  81465-3 0  9998
2 47641  53.0546 285.7722 0001336  90.4489 269.6653 15.06417349161631
STARLINK-2020           
1 47642U 21012Y   24008.94934573  .00000891  00000+0  78700-4 0  9990
2 47642  53.0549  16.3864 0001462  83.1357 276.9798 15.06395418160354
STARLINK-2022           
1 47643U 21012Z   24009.16266788  .00000932  00000+0  81493-4 0  9991
2 47643  53.0553   0.4337 0001572  93.9975 266.1193 15.06396747160598
STARLINK-2026           
1 47644U 21012AA  24009.04287585 -.00000100  00000+0  12158-4 0  9997
2 47644  53.0547  20.9665 0001176  89.6064 270.5059 15.06398387160305
STARLINK-2027           
1 47645U 21012AB  24009.13045001  .00001925  00000+0  14816-3 0  9990
2 47645  53.0559 350.8179 0001437  87.7519 272.3634 15.06389939160726
STARLINK-2028           
1 47646U 21012AC  24009.11708022  .00001347  00000+0  10931-3 0  9990
2 47646  53.0587 315.8587 0001813 110.8726 249.2457 15.06397014161212
STARLINK-2030           
1 47647U 21012AD  24009.05393461  .00000700  00000+0  65900-4 0  9990
2 47647  53.0556  20.9201 0001521  92.0968 268.0195 15.06390219160308
STARLINK-2031           
1 47648U 21012AE  24009.11106368  .00000901  00000+0  79366-4 0  9990
2 47648  53.0551   0.6611 0001383  85.2717 274.8430 15.06394518160590
STARLINK-2032           
1 47649U 21012AF  24009.11474056 -.00001951  00000+0 -11213-3 0  9997
2 47649  53.0568   0.6370 0001964 128.3335 231.7831 15.06398176160592
STARLINK-2033           
1 47650U 21012AG  24009.16635410  .00000606  00000+0  59619-4 0  9994
2 47650  53.0560   0.4138 0001917 118.6398 241.4784 15.06391946160598
STARLINK-2035           
1 47651U 21012AH  24008.93967091  .00000971  00000+0  84062-4 0  9997
2 47651  53.0549  21.4839 0001192  89.1931 270.9194 15.06396161160289
STARLINK-2036           
1 47652U 21012AJ  24009.02718629  .00000820  00000+0  73941-4 0  9997
2 47652  53.0533  21.0269 0001374  97.0266 263.0880 15.06391896160293
STARLINK-2037           
1 47653U 21012AK  24009.15529394  .00001183  00000+0  98311-4 0  9992
2 47653  53.0572   0.4623 0001863 117.4818 242.6361 15.06394398160595
STARLINK-2038           
1 47654U 21012AL  24009.16451070  .00001071  00000+0  90819-4 0  9990
2 47654  53.0537  20.4240 0001496  80.4739 279.6419 15.06394163160311
