[{"OBJECT_NAME":"STARLINK-2015","OBJECT_ID":"2021-012U","EPOCH":"2024-01-09T00:50:28.986144","MEAN_MOTION":15.06391348,"ECCENTRICITY":0.0001365,"INCLINATION":53.0545,"RA_OF_ASC_NODE":286.0089,"ARG_OF_PERICENTER":97.3043,"MEAN_ANOMALY":262.8102,"EPHEMERIS_TYPE":0,"CLASSIFICATION_TYPE":"U","NORAD_CAT_ID":47638,"ELEMENT_SET_NO":999,"REV_AT_EPOCH":16163,"BSTAR":0.00014876,"MEAN_MOTION_DOT":1.935e-5,"MEAN_MOTION_DDOT":0},{"OBJECT_NAME":"STARLINK-2016","OBJECT_ID":"2021-012V","EPOCH":"2024-01-09T03:33:00.446112","MEAN_MOTION":15.06387873,"ECCENTRICITY":0.0001528,"INCLINATION":53.053,"RA_OF_ASC_NODE":0.4912,"ARG_OF_PERICENTER":89.3223,"MEAN_ANOMALY":270.7941,"EPHEMERIS_TYPE":0,"CLASSIFICATION_TYPE":"U","NORAD_CAT_ID":47639,"ELEMENT_SET_NO":999,"REV_AT_EPOCH":16059,"BSTAR":-0.0001015,"MEAN_MOTION_DOT":-1.792e-5,"MEAN_MOTION_DDOT":0},{"OBJECT_NAME":"STARLINK-2018","OBJECT_ID":"2021-012W","EPOCH":"2024-01-08T22:38:26.008512","MEAN_MOTION":15.06394015,"ECCENTRICITY":0.0001531,"INCLINATION":53.0556,"RA_OF_ASC_NODE":21.4177,"ARG_OF_PERICENTER":105.0392,"MEAN_ANOMALY":255.0767,"EPHEMERIS_TYPE":0,"CLASSIFICATION_TYPE":"U","NORAD_CAT_ID":47640,"ELEMENT_SET_NO":999,"REV_AT_EPOCH":16028,"BSTAR":0.00013355,"MEAN_MOTION_DOT":1.708e-5,"MEAN_MOTION_DDOT":0},{"OBJECT_NAME":"STARLINK-2019","OBJECT_ID":"2021-012X","EPOCH":"2024-01-09T02:04:45.882624","MEAN_MOTION":15.06417349,"ECCENTRICITY":0.0001336,"INCLINATION":53.0546,"RA_OF_ASC_NODE":285.7722,"ARG_OF_PERICENTER":90.4489,"MEAN_ANOMALY":269.6653,"EPHEMERIS_TYPE":0,"CLASSIFICATION_TYPE":"U","NORAD_CAT_ID":47641,"ELEMENT_SET_NO":999,"REV_AT_EPOCH":16163,"BSTAR":0.00081465,"MEAN_MOTION_DOT":0.00011879,"MEAN_MOTION_DDOT":0},{"OBJECT_NAME":"STARLINK-2020","OBJECT_ID":"2021-012Y","EPOCH":"2024-01-08T22:47:03.471072","MEAN_MOTION":15.06395418,"ECCENTRICITY":0.0001462,"INCLINATION":53.0549,"RA_OF_ASC_NODE":16.3864,"ARG_OF_PERICENTER":83.1357,"MEAN_ANOMALY":276.9798,"EPHEMERIS_TYPE":0,"CLASSIFICATION_TYPE":"U","NORAD_CAT_ID":47642,"ELEMENT_SET_NO":999,"REV_AT_EPOCH":16035,"BSTAR":7.87e-5,"MEAN_MOTION_DOT":8.91e-6,"MEAN_MOTION_DDOT":0},{"OBJECT_NAME":"STARLINK-2022","OBJECT_ID":"2021-012Z","EPOCH":"2024-01-09T03:54:14.504832","MEAN_MOTION":15.06396747,"ECCENTRICITY":0.0001572,"INCLINATION":53.0553,"RA_OF_ASC_NODE":0.4337,"ARG_OF_PERICENTER":93.9975,"MEAN_ANOMALY":266.1193,"EPHEMERIS_TYPE":0,"CLASSIFICATION_TYPE":"U","NORAD_CAT_ID":47643,"ELEMENT_SET_NO":999,"REV_AT_EPOCH":16059,"BSTAR":8.1493e-5,"MEAN_MOTION_DOT":9.32e-6,"MEAN_MOTION_DDOT":0},{"OBJECT_NAME":"STARLINK-2026","OBJECT_ID":"2021-012AA","EPOCH":"2024-01-09T01:01:44.473440","MEAN_MOTION":15.06398387,"ECCENTRICITY":0.0001176,"INCLINATION":53.0547,"RA_OF_ASC_NODE":20.9665,"ARG_OF_PERICENTER":89.6064,"MEAN_ANOMALY":270.5059,"EPHEMERIS_TYPE":0,"CLASSIFICATION_TYPE":"U","NORAD_CAT_ID":47644,"ELEMENT_SET_NO":999,"REV_AT_EPOCH":16030,"BSTAR":1.2158e-5,"MEAN_MOTION_DOT":-1.0e-6,"MEAN_MOTION_DDOT":0},{"OBJECT_NAME":"STARLINK-2027","OBJECT_ID":"2021-012AB","EPOCH":"2024-01-09T03:07:50.880864","MEAN_MOTION":15.06389939,"ECCENTRICITY":0.0001437,"INCLINATION":53.0559,"RA_OF_ASC_NODE":350.8179,"ARG_OF_PERICENTER":87.7519,"MEAN_ANOMALY":272.3634,"EPHEMERIS_TYPE":0,"CLASSIFICATION_TYPE":"U","NORAD_CAT_ID":47645,"ELEMENT_SET_NO":999,"REV_AT_EPOCH":16072,"BSTAR":0.00014816,"MEAN_MOTION_DOT":1.925e-5,"MEAN_MOTION_DDOT":0},{"OBJECT_NAME":"STARLINK-2028","OBJECT_ID":"2021-012AC","EPOCH":"2024-01-09T02:48:35.731008","MEAN_MOTION":15.06397014,"ECCENTRICITY":0.0001813,"INCLINATION":53.0587,"RA_OF_ASC_NODE":315.8587,"ARG_OF_PERICENTER":110.8726,"MEAN_ANOMALY":249.2457,"EPHEMERIS_TYPE":0,"CLASSIFICATION_TYPE":"U","NORAD_CAT_ID":47646,"ELEMENT_SET_NO":999,"REV_AT_EPOCH":16121,"BSTAR":0.00010931,"MEAN_MOTION_DOT":1.347e-5,"MEAN_MOTION_DDOT":0},{"OBJECT_NAME":"STARLINK-2030","OBJECT_ID":"2021-012AD","EPOCH":"2024-01-09T01:17:39.950304","MEAN_MOTION":15.06390219,"ECCENTRICITY":0.0001521,"INCLINATION":53.0556,"RA_OF_ASC_NODE":20.9201,"ARG_OF_PERICENTER":92.0968,"MEAN_ANOMALY":268.0195,"EPHEMERIS_TYPE":0,"CLASSIFICATION_TYPE":"U","NORAD_CAT_ID":47647,"ELEMENT_SET_NO":999,"REV_AT_EPOCH":16030,"BSTAR":6.59e-5,"MEAN_MOTION_DOT":7.0e-6,"MEAN_MOTION_DDOT":0},{"OBJECT_NAME":"STARLINK-2031","OBJECT_ID":"2021-012AE","EPOCH":"2024-01-09T02:39:55.901952","MEAN_MOTION":15.06394518,"ECCENTRICITY":0.0001383,"INCLINATION":53.0551,"RA_OF_ASC_NODE":0.6611,"ARG_OF_PERICENTER":85.2717,"MEAN_ANOMALY":274.843,"EPHEMERIS_TYPE":0,"CLASSIFICATION_TYPE":"U","NORAD_CAT_ID":47648,"ELEMENT_SET_NO":999,"REV_AT_EPOCH":16059,"BSTAR":7.9366e-5,"MEAN_MOTION_DOT":9.01e-6,"MEAN_MOTION_DDOT":0},{"OBJECT_NAME":"STARLINK-2032","OBJECT_ID":"2021-012AF","EPOCH":"2024-01-09T02:45:13.584384","MEAN_MOTION":15.06398176,"ECCENTRICITY":0.0001964,"INCLINATION":53.0568,"RA_OF_ASC_NODE":0.637,"ARG_OF_PERICENTER":128.3335,"MEAN_ANOMALY":231.7831,"EPHEMERIS_TYPE":0,"CLASSIFICATION_TYPE":"U","NORAD_CAT_ID":47649,"ELEMENT_SET_NO":999,"REV_AT_EPOCH":16059,"BSTAR":-0.00011213,"MEAN_MOTION_DOT":-1.951e-5,"MEAN_MOTION_DDOT":0},{"OBJECT_NAME":"STARLINK-2033","OBJECT_ID":"2021-012AG","EPOCH":"2024-01-09T03:59:32.994240","MEAN_MOTION":15.06391946,"ECCENTRICITY":0.0001917,"INCLINATION":53.056,"RA_OF_ASC_NODE":0.4138,"ARG_OF_PERICENTER":118.6398,"MEAN_ANOMALY":241.4784,"EPHEMERIS_TYPE":0,"CLASSIFICATION_TYPE":"U","NORAD_CAT_ID":47650,"ELEMENT_SET_NO":999,"REV_AT_EPOCH":16059,"BSTAR":5.9619e-5,"MEAN_MOTION_DOT":6.06e-6,"MEAN_MOTION_DDOT":0},{"OBJECT_NAME":"STARLINK-2035","OBJECT_ID":"2021-012AH","EPOCH":"2024-01-08T22:33:07.566624","MEAN_MOTION":15.06396161,"ECCENTRICITY":0.0001192,"INCLINATION":53.0549,"RA_OF_ASC_NODE":21.4839,"ARG_OF_PERICENTER":89.1931,"MEAN_ANOMALY":270.9194,"EPHEMERIS_TYPE":0,"CLASSIFICATION_TYPE":"U","NORAD_CAT_ID":47651,"ELEMENT_SET_NO":999,"REV_AT_EPOCH":16028,"BSTAR":8.4062e-5,"MEAN_MOTION_DOT":9.71e-6,"MEAN_MOTION_DDOT":0},{"OBJECT_NAME":"STARLINK-2036","OBJECT_ID":"2021-012AJ","EPOCH":"2024-01-09T00:39:08.895456","MEAN_MOTION":15.06391896,"ECCENTRICITY":0.0001374,"INCLINATION":53.0533,"RA_OF_ASC_NODE":21.0269,"ARG_OF_PERICENTER":97.0266,"MEAN_ANOMALY":263.088,"EPHEMERIS_TYPE":0,"CLASSIFICATION_TYPE":"U","NORAD_CAT_ID":47652,"ELEMENT_SET_NO":999,"REV_AT_EPOCH":16029,"BSTAR":7.3941e-5,"MEAN_MOTION_DOT":8.2e-6,"MEAN_MOTION_DDOT":0},{"OBJECT_NAME":"STARLINK-2037","OBJECT_ID":"2021-012AK","EPOCH":"2024-01-09T03:43:37.396416","MEAN_MOTION":15.06394398,"ECCENTRICITY":0.0001863,"INCLINATION":53.0572,"RA_OF_ASC_NODE":0.4623,"ARG_OF_PERICENTER":117.4818,"MEAN_ANOMALY":242.6361,"EPHEMERIS_TYPE":0,"CLASSIFICATION_TYPE":"U","NORAD_CAT_ID":47653,"ELEMENT_SET_NO":999,"REV_AT_EPOCH":16059,"BSTAR":9.8311e-5,"MEAN_MOTION_DOT":1.183e-5,"MEAN_MOTION_DDOT":0},{"OBJECT_NAME":"STARLINK-2038","OBJECT_ID":"2021-012AL","EPOCH":"2024-01-09T03:56:53.724480","MEAN_MOTION":15.06394163,"ECCENTRICITY":0.0001496,"INCLINATION":53.0537,"RA_OF_ASC_NODE":20.424,"ARG_OF_PERICENTER":80.4739,"MEAN_ANOMALY":279.6419,"EPHEMERIS_TYPE":0,"CLASSIFICATION_TYPE":"U","NORAD_CAT_ID":47654,"ELEMENT_SET_NO":999,"REV_AT_EPOCH":16031,"BSTAR":9.0819e-5,"MEAN_MOTION_DOT":1.071e-5,"MEAN_MOTION_DDOT":0}]
